{"type": "FeatureCollection", "features": [ {"type": "Feature", "properties": {"norad_id": 37216, "name": "COSMO-SKYMED 4", "group": "resource", "lat": 53.97805048366232, "lon": 7.414540638818629, "alt_km": 616.7088433364734, "timestamp": "2025-12-21T05:44:51.232632+00:00", "meta": {"OBJECT_NAME": "COSMO-SKYMED 4", "OBJECT_ID": "2010-060A", "EPOCH": "2025-12-20T22:42:13.504896", "MEAN_MOTION": 14.82156657, "ECCENTRICITY": 0.00014483, "INCLINATION": 97.8799, "RA_OF_ASC_NODE": 176.1453, "ARG_OF_PERICENTER": 82.5077, "MEAN_ANOMALY": 277.6301, "EPHEMERIS_TYPE": 0, "CLASSIFICATION_TYPE": "U", "NORAD_CAT_ID": 37216, "ELEMENT_SET_NO": 999, "REV_AT_EPOCH": 81816, "BSTAR": 0.00015088798, "MEAN_MOTION_DOT": 1.149e-05, "MEAN_MOTION_DDOT": 0}, "tle": {"line1": "1 37216U 10060A   25354.94598964  .00001149  00000+0  15089-3 0  9999", "line2": "2 37216  97.8799 176.1453 0001448  82.5077 277.6301 14.82156657818168"}}, "geometry": {"type": "Point", "coordinates": [7.414540638818629, 53.97805048366232]}}, {"type": "Feature", "properties": {"norad_id": 37387, "name": "RESOURCESAT-2", "group": "resource", "lat": 39.818436518605, "lon": 51.34391994837908, "alt_km": 812.748997686097, "timestamp": "2025-12-21T05:44:51.232643+00:00", "meta": {"OBJECT_NAME": "RESOURCESAT-2", "OBJECT_ID": "2011-015A", "EPOCH": "2025-12-20T22:48:06.059232", "MEAN_MOTION": 14.21600223, "ECCENTRICITY": 0.00060435, "INCLINATION": 98.7866, "RA_OF_ASC_NODE": 58.4647, "ARG_OF_PERICENTER": 20.5322, "MEAN_ANOMALY": 339.6097, "EPHEMERIS_TYPE": 0, "CLASSIFICATION_TYPE": "U", "NORAD_CAT_ID": 37387, "ELEMENT_SET_NO": 999, "REV_AT_EPOCH": 76085, "BSTAR": 6.1552163e-05, "MEAN_MOTION_DOT": 9e-07, "MEAN_MOTION_DDOT": 0}, "tle": {"line1": "1 37387U 11015A   25354.95007013  .00000090  00000+0  61552-4 0  9991", "line2": "2 37387  98.7866  58.4647 0006043  20.5322 339.6097 14.21600223760859"}}, "geometry": {"type": "Point", "coordinates": [51.34391994837908, 39.818436518605]}}, {"type": "Feature", "properties": {"norad_id": 37781, "name": "HAIYANG-2A", "group": "resource", "lat": -41.28252965911916, "lon": 167.7376331922724, "alt_km": 975.5205538284281, "timestamp": "2025-12-21T05:44:51.232652+00:00", "meta": {"OBJECT_NAME": "HAIYANG-2A", "OBJECT_ID": "2011-043A", "EPOCH": "2025-12-20T23:27:01.314720", "MEAN_MOTION": 13.78836013, "ECCENTRICITY": 0.00016247, "INCLINATION": 99.3371, "RA_OF_ASC_NODE": 355.7846, "ARG_OF_PERICENTER": 72.8611, "MEAN_ANOMALY": 287.2719, "EPHEMERIS_TYPE": 0, "CLASSIFICATION_TYPE": "U", "NORAD_CAT_ID": 37781, "ELEMENT_SET_NO": 999, "REV_AT_EPOCH": 72212, "BSTAR": -2.5463533e-05, "MEAN_MOTION_DOT": -7e-07, "MEAN_MOTION_DDOT": 0}, "tle": {"line1": "1 37781U 11043A   25354.97709855 -.00000070  00000+0 -25464-4 0  9997", "line2": "2 37781  99.3371 355.7846 0001624  72.8611 287.2719 13.78836013722126"}}, "geometry": {"type": "Point", "coordinates": [167.7376331922724, -41.28252965911916]}}, {"type": "Feature", "properties": {"norad_id": 37791, "name": "RASAT", "group": "resource", "lat": -0.06303359964682295, "lon": -95.63766014660311, "alt_km": 682.4426259925904, "timestamp": "2025-12-21T05:44:51.232671+00:00", "meta": {"OBJECT_NAME": "RASAT", "OBJECT_ID": "2011-044D", "EPOCH": "2025-12-20T22:53:22.507872", "MEAN_MOTION": 14.67918582, "ECCENTRICITY": 0.002154, "INCLINATION": 98.0652, "RA_OF_ASC_NODE": 84.0898, "ARG_OF_PERICENTER": 40.2662, "MEAN_ANOMALY": 70.3825, "EPHEMERIS_TYPE": 0, "CLASSIFICATION_TYPE": "U", "NORAD_CAT_ID": 37791, "ELEMENT_SET_NO": 999, "REV_AT_EPOCH": 76703, "BSTAR": 1.6948197e-05, "MEAN_MOTION_DOT": 4.8e-07, "MEAN_MOTION_DDOT": 0}, "tle": {"line1": "1 37791U 11044D   25354.95373273  .00000048  00000+0  16948-4 0  9998", "line2": "2 37791  98.0652  84.0898 0021540  40.2662  70.3825 14.67918582767037"}}, "geometry": {"type": "Point", "coordinates": [-95.63766014660311, -0.06303359964682295]}}, {"type": "Feature", "properties": {"norad_id": 37841, "name": "SRMSAT", "group": "resource", "lat": 7.001881854441029, "lon": -143.2543678646372, "alt_km": 854.1880213484656, "timestamp": "2025-12-21T05:44:51.232681+00:00", "meta": {"OBJECT_NAME": "SRMSAT", "OBJECT_ID": "2011-058D", "EPOCH": "2025-12-20T21:20:04.417728", "MEAN_MOTION": 14.11513978, "ECCENTRICITY": 0.00119611, "INCLINATION": 19.9725, "RA_OF_ASC_NODE": 58.6302, "ARG_OF_PERICENTER": 42.8733, "MEAN_ANOMALY": 130.9266, "EPHEMERIS_TYPE": 0, "CLASSIFICATION_TYPE": "U", "NORAD_CAT_ID": 37841, "ELEMENT_SET_NO": 999, "REV_AT_EPOCH": 73259, "BSTAR": 6.1949044e-05, "MEAN_MOTION_DOT": 3.79e-06, "MEAN_MOTION_DDOT": 0}, "tle": {"line1": "1 37841U 11058D   25354.88894002  .00000379  00000+0  61949-4 0  9997", "line2": "2 37841  19.9725  58.6302 0011961  42.8733 130.9266 14.11513978732590"}}, "geometry": {"type": "Point", "coordinates": [-143.2543678646372, 7.001881854441029]}}, {"type": "Feature", "properties": {"norad_id": 38012, "name": "PLEIADES 1A", "group": "resource", "lat": 48.54542666625898, "lon": 58.5027670696693, "alt_km": 692.6995372952251, "timestamp": "2025-12-21T05:44:51.232691+00:00", "meta": {"OBJECT_NAME": "PLEIADES 1A", "OBJECT_ID": "2011-076F", "EPOCH": "2025-12-20T23:43:37.983648", "MEAN_MOTION": 14.58567544, "ECCENTRICITY": 0.00011603, "INCLINATION": 98.1821, "RA_OF_ASC_NODE": 67.6302, "ARG_OF_PERICENTER": 76.5574, "MEAN_ANOMALY": 96.3569, "EPHEMERIS_TYPE": 0, "CLASSIFICATION_TYPE": "U", "NORAD_CAT_ID": 38012, "ELEMENT_SET_NO": 999, "REV_AT_EPOCH": 74601, "BSTAR": 2.3573318e-05, "MEAN_MOTION_DOT": 6.4e-07, "MEAN_MOTION_DDOT": 0}, "tle": {"line1": "1 38012U 11076F   25354.98863407  .00000064  00000+0  23573-4 0  9996", "line2": "2 38012  98.1821  67.6302 0001160  76.5574  96.3569 14.58567544746016"}}, "geometry": {"type": "Point", "coordinates": [58.5027670696693, 48.54542666625898]}}, {"type": "Feature", "properties": {"norad_id": 38038, "name": "ZIYUAN 1-02C (ZY 1-02C)", "group": "resource", "lat": 48.49699112205806, "lon": 51.44468312824087, "alt_km": 758.5617650731183, "timestamp": "2025-12-21T05:44:51.232701+00:00", "meta": {"OBJECT_NAME": "ZIYUAN 1-02C (ZY 1-02C)", "OBJECT_ID": "2011-079A", "EPOCH": "2025-12-20T23:38:31.007040", "MEAN_MOTION": 14.38019894, "ECCENTRICITY": 0.00074775, "INCLINATION": 98.433, "RA_OF_ASC_NODE": 60.847, "ARG_OF_PERICENTER": 116.8759, "MEAN_ANOMALY": 56.2457, "EPHEMERIS_TYPE": 0, "CLASSIFICATION_TYPE": "U", "NORAD_CAT_ID": 38038, "ELEMENT_SET_NO": 999, "REV_AT_EPOCH": 73359, "BSTAR": 8.0838495e-05, "MEAN_MOTION_DOT": 2.01e-06, "MEAN_MOTION_DDOT": 0}, "tle": {"line1": "1 38038U 11079A   25354.98508110  .00000201  00000+0  80838-4 0  9994", "line2": "2 38038  98.4330  60.8470 0007477 116.8759  56.2457 14.38019894733591"}}, "geometry": {"type": "Point", "coordinates": [51.44468312824087, 48.49699112205806]}}, {"type": "Feature", "properties": {"norad_id": 38338, "name": "ARIRANG-3 (KOMPSAT-3)", "group": "resource", "lat": 42.576098207957465, "lon": -57.84629241728441, "alt_km": 684.3563086930963, "timestamp": "2025-12-21T05:44:51.232711+00:00", "meta": {"OBJECT_NAME": "ARIRANG-3 (KOMPSAT-3)", "OBJECT_ID": "2012-025B", "EPOCH": "2025-12-20T21:20:11.649408", "MEAN_MOTION": 14.61722339, "ECCENTRICITY": 0.00048753, "INCLINATION": 98.3334, "RA_OF_ASC_NODE": 309.5402, "ARG_OF_PERICENTER": 310.2678, "MEAN_ANOMALY": 49.8096, "EPHEMERIS_TYPE": 0, "CLASSIFICATION_TYPE": "U", "NORAD_CAT_ID": 38338, "ELEMENT_SET_NO": 999, "REV_AT_EPOCH": 72529, "BSTAR": 8.6027794e-05, "MEAN_MOTION_DOT": 3.8e-06, "MEAN_MOTION_DDOT": 0}, "tle": {"line1": "1 38338U 12025B   25354.88902372  .00000380  00000+0  86028-4 0  9991", "line2": "2 38338  98.3334 309.5402 0004875 310.2678  49.8096 14.61722339725290"}}, "geometry": {"type": "Point", "coordinates": [-57.84629241728441, 42.576098207957465]}}, {"type": "Feature", "properties": {"norad_id": 38709, "name": "EXACTVIEW-1 (ADS-1B)", "group": "resource", "lat": -3.3890241944888455, "lon": 104.34334095052169, "alt_km": 805.5934726786036, "timestamp": "2025-12-21T05:44:51.232721+00:00", "meta": {"OBJECT_NAME": "EXACTVIEW-1 (ADS-1B)", "OBJECT_ID": "2012-039C", "EPOCH": "2025-12-20T21:20:14.250048", "MEAN_MOTION": 14.24910996, "ECCENTRICITY": 0.0010268, "INCLINATION": 98.9639, "RA_OF_ASC_NODE": 103.4501, "ARG_OF_PERICENTER": 330.0947, "MEAN_ANOMALY": 29.9644, "EPHEMERIS_TYPE": 0, "CLASSIFICATION_TYPE": "U", "NORAD_CAT_ID": 38709, "ELEMENT_SET_NO": 999, "REV_AT_EPOCH": 69731, "BSTAR": 6.3944699e-05, "MEAN_MOTION_DOT": 1.03e-06, "MEAN_MOTION_DDOT": 0}, "tle": {"line1": "1 38709U 12039C   25354.88905382  .00000103  00000+0  63945-4 0  9998", "line2": "2 38709  98.9639 103.4501 0010268 330.0947  29.9644 14.24910996697315"}}, "geometry": {"type": "Point", "coordinates": [104.34334095052169, -3.3890241944888455]}}, {"type": "Feature", "properties": {"norad_id": 38755, "name": "SPOT 6", "group": "resource", "lat": -26.812708953165895, "lon": 64.0248160142896, "alt_km": 703.8700841444752, "timestamp": "2025-12-21T05:44:51.232731+00:00", "meta": {"OBJECT_NAME": "SPOT 6", "OBJECT_ID": "2012-047A", "EPOCH": "2025-12-20T23:17:08.699712", "MEAN_MOTION": 14.58538332, "ECCENTRICITY": 0.00013292, "INCLINATION": 98.1569, "RA_OF_ASC_NODE": 59.6035, "ARG_OF_PERICENTER": 78.9519, "MEAN_ANOMALY": 281.183, "EPHEMERIS_TYPE": 0, "CLASSIFICATION_TYPE": "U", "NORAD_CAT_ID": 38755, "ELEMENT_SET_NO": 999, "REV_AT_EPOCH": 70707, "BSTAR": 3.5421247e-05, "MEAN_MOTION_DOT": 1.19e-06, "MEAN_MOTION_DDOT": 0}, "tle": {"line1": "1 38755U 12047A   25354.97023958  .00000119  00000+0  35421-4 0  9993", "line2": "2 38755  98.1569  59.6035 0001329  78.9519 281.1830 14.58538332707076"}}, "geometry": {"type": "Point", "coordinates": [64.0248160142896, -26.812708953165895]}}]}